{
  "norad_id": 64818,
  "name": "KUIPER-00071",
  "history": [
    {
      "epoch": "2026-03-28T15:09:59.050944",
      "apogee_km": 629.8665054912208,
      "perigee_km": 629.2161929404128,
      "latitude_deg": 48.20795744993359,
      "longitude_deg": 2.4656121600419283,
      "semi_major_axis_km": 7007.6783492158165,
      "eccentricity": 4.64e-05,
      "inclination_deg": 51.8999,
      "raan_deg": 219.3201,
      "arg_perigee_deg": 72.0522,
      "mean_anomaly_deg": 288.0491,
      "mean_motion_rev_day": 14.79931188
    }
  ]
}